NORAD_CAT_ID,OBJECT_NAME,OBJECT_TYPE,EPOCH,MEAN_MOTION,ECCENTRICITY,INCLINATION,RA_OF_ASC_NODE,ARG_OF_PERICENTER,MEAN_ANOMALY,BSTAR,MEAN_MOTION_DOT,MEAN_MOTION_DDOT,TLE_LINE0,TLE_LINE1,TLE_LINE2,SEMIMAJOR_AXIS,PERIOD,APOGEE,PERIGEE,DECAYED
52139.0,STARLINK-3730,PAYLOAD,2023-02-24 01:17:15,15.08851789,9.19e-05,53.2168,20.474,85.6782,274.4315,0.00057199,8.83e-05,0.0,0 STARLINK-3730,1 52139U 22029BD  23055.05364830  .00008830  00000-0  57199-3 0  9992,2 52139  53.2168  20.4740 0000919  85.6782 274.4315 15.08851789 53274,6917.844,95.437,540.345,539.074,0.0
52139.0,STARLINK-3730,PAYLOAD,2023-02-24 06:03:24,15.08865765,8.65e-05,53.2172,19.5835,68.245,291.8634,0.0012666,0.00019942,0.0,0 STARLINK-3730,1 52139U 22029BD  23055.25236537  .00019942  00000-0  12666-2 0  9991,2 52139  53.2172  19.5835 0000865  68.2450 291.8634 15.08865765 53302,6917.802,95.436,540.265,539.068,0.0
52139.0,STARLINK-3730,PAYLOAD,2023-02-24 21:57:15,15.0884153,7.11e-05,53.2164,16.6084,77.7402,282.367,4.6737e-05,4.56e-06,0.0,0 STARLINK-3730,1 52139U 22029BD  23055.91476708  .00000456  00000-0  46737-4 0  9998,2 52139  53.2164  16.6084 0000711  77.7402 282.3670 15.08841530 53409,6917.876,95.437,540.233,539.249,0.0
52139.0,STARLINK-3730,PAYLOAD,2023-02-25 05:54:11,15.08847831,8.45e-05,53.218,15.1239,88.4304,271.6785,0.00022557,3.305e-05,0.0,0 STARLINK-3730,1 52139U 22029BD  23056.24596580  .00003305  00000-0  22557-3 0  9995,2 52139  53.2180  15.1239 0000845  88.4304 271.6785 15.08847831 53454,6917.856,95.437,540.306,539.137,0.0
52139.0,STARLINK-3730,PAYLOAD,2023-02-25 07:29:34,15.08849356,8.23e-05,53.2176,14.8259,85.9798,274.1288,0.00027827,4.145e-05,0.0,0 STARLINK-3730,1 52139U 22029BD  23056.31220526  .00004145  00000-0  27827-3 0  9995,2 52139  53.2176  14.8259 0000823  85.9798 274.1288 15.08849356 53463,6917.852,95.437,540.286,539.147,0.0
52139.0,STARLINK-3730,PAYLOAD,2023-02-26 04:09:35,15.08847997,9.46e-05,53.2184,10.9625,96.1763,263.9337,0.00027217,4.047e-05,0.0,0 STARLINK-3730,1 52139U 22029BD  23057.17332700  .00004047  00000-0  27217-3 0  9992,2 52139  53.2184  10.9625 0000946  96.1763 263.9337 15.08847997 53592,6917.856,95.437,540.375,539.067,0.0
52139.0,STARLINK-3730,PAYLOAD,2023-02-26 07:20:21,15.0885607,0.000105,53.2164,10.3654,86.2321,273.8791,0.00084291,0.00013158,0.0,0 STARLINK-3730,1 52139U 22029BD  23057.30580566  .00013158  00000-0  84291-3 0  9990,2 52139  53.2164  10.3654 0001050  86.2321 273.8791 15.08856070 53612,6917.831,95.437,540.423,538.97,0.0
52139.0,STARLINK-3730,PAYLOAD,2023-02-27 04:00:22,15.08853973,0.0001093,53.2159,6.4971,104.7582,255.3531,0.0010025,0.00015709,0.0,0 STARLINK-3730,1 52139U 22029BD  23058.16692849  .00015709  00000-0  10025-2 0  9990,2 52139  53.2159   6.4971 0001093 104.7582 255.3531 15.08853973 53746,6917.838,95.437,540.459,538.947,0.0
52139.0,STARLINK-3730,PAYLOAD,2023-02-28 02:15:44,15.08903011,0.0001073,53.2162,2.3319,110.4321,249.6786,0.0016541,0.00026181,0.0,0 STARLINK-3730,1 52139U 22029BD  23059.09426410  .00026181  00000-0  16541-2 0  9997,2 52139  53.2162   2.3319 0001073 110.4321 249.6786 15.08903011 53886,6917.688,95.434,540.295,538.811,0.0
52139.0,STARLINK-3730,PAYLOAD,2023-02-28 05:26:30,15.08921218,0.0001372,53.2165,1.7431,70.1044,290.0096,0.0019197,0.00030464,0.0,0 STARLINK-3730,1 52139U 22029BD  23059.22673790  .00030464  00000-0  19197-2 0  9996,2 52139  53.2165   1.7431 0001372  70.1044 290.0096 15.08921218 53909,6917.632,95.432,540.446,538.548,0.0
52139.0,STARLINK-3730,PAYLOAD,2023-03-01 02:06:32,15.0882513,0.0002175,53.2174,357.8769,79.408,280.7157,0.0011007,0.00017266,0.0,0 STARLINK-3730,1 52139U 22029BD  23060.08787644  .00017266  00000-0  11007-2 0  9993,2 52139  53.2174 357.8769 0002175  79.4080 280.7157 15.08825130 54037,6917.926,95.438,541.295,538.286,0.0
52139.0,STARLINK-3730,PAYLOAD,2023-03-01 06:52:42,15.08821455,0.0001849,53.218,356.9843,73.7757,286.3438,0.00078799,0.00012269,0.0,0 STARLINK-3730,1 52139U 22029BD  23060.28659906  .00012269  00000-0  78799-3 0  9994,2 52139  53.2180 356.9843 0001849  73.7757 286.3438 15.08821455 54065,6917.937,95.439,541.081,538.523,0.0
52139.0,STARLINK-3730,PAYLOAD,2023-03-02 01:57:20,15.08824667,0.000187,53.2173,353.4157,78.4297,281.6905,0.00063028,9.753e-05,0.0,0 STARLINK-3730,1 52139U 22029BD  23061.08148626  .00009753  00000-0  63028-3 0  9998,2 52139  53.2173 353.4157 0001870  78.4297 281.6905 15.08824667 54180,6917.927,95.439,541.086,538.499,0.0
52139.0,STARLINK-3730,PAYLOAD,2023-03-02 05:08:06,15.08826776,0.000168,53.2176,352.8214,76.7741,283.3438,0.0010666,0.00016722,0.0,0 STARLINK-3730,1 52139U 22029BD  23061.21396773  .00016722  00000-0  10666-2 0  9994,2 52139  53.2176 352.8214 0001680  76.7741 283.3438 15.08826776 54200,6917.921,95.438,540.948,538.624,0.0
52139.0,STARLINK-3730,PAYLOAD,2023-03-03 04:58:54,15.08837428,0.0001811,53.2171,348.3558,85.9807,274.1392,0.00053032,8.161e-05,0.0,0 STARLINK-3730,1 52139U 22029BD  23062.20757300  .00008161  00000-0  53032-3 0  9994,2 52139  53.2171 348.3558 0001811  85.9807 274.1392 15.08837428 54356,6917.888,95.438,541.006,538.5,0.0
52139.0,STARLINK-3730,PAYLOAD,2023-03-03 19:17:22,15.08847958,0.0001729,53.2165,345.6822,80.036,280.0828,0.00030409,4.556e-05,0.0,0 STARLINK-3730,1 52139U 22029BD  23062.80372990  .00004556  00000-0  30409-3 0  9995,2 52139  53.2165 345.6822 0001729  80.0360 280.0828 15.08847958 54440,6917.856,95.437,540.917,538.525,0.0
52139.0,STARLINK-3730,PAYLOAD,2023-03-04 03:14:16,15.08876379,0.0001622,53.2178,344.1981,75.2918,284.8253,0.00090349,0.00014135,0.0,0 STARLINK-3730,1 52139U 22029BD  23063.13491872  .00014135  00000-0  90349-3 0  9996,2 52139  53.2178 344.1981 0001622  75.2918 284.8253 15.08876379 54499,6917.769,95.435,540.756,538.512,0.0
52139.0,STARLINK-3730,PAYLOAD,2023-03-04 04:49:39,15.08880635,0.0001609,53.2174,343.8984,70.5236,289.593,0.0010106,0.0001585,0.0,0 STARLINK-3730,1 52139U 22029BD  23063.20115571  .00015850  00000-0  10106-2 0  9990,2 52139  53.2174 343.8984 0001609  70.5236 289.5930 15.08880635 54506,6917.756,95.435,540.734,538.508,0.0
52139.0,STARLINK-3730,PAYLOAD,2023-03-04 19:08:09,15.08825356,0.0001398,53.2177,341.2248,86.179,273.9362,-0.0005199,-8.549e-05,0.0,0 STARLINK-3730,1 52139U 22029BD  23063.79733032 -.00008549  00000-0 -51990-3 0  9998,2 52139  53.2177 341.2248 0001398  86.1790 273.9362 15.08825356 54591,6917.925,95.438,540.757,538.823,0.0
52139.0,STARLINK-3730,PAYLOAD,2023-03-05 01:29:41,15.08833954,9.49e-05,53.2179,340.0345,69.8702,290.2392,-5.8457e-05,-1.218e-05,0.0,0 STARLINK-3730,1 52139U 22029BD  23064.06229081 -.00001218  00000-0 -58457-4 0  9995,2 52139  53.2179 340.0345 0000949  69.8702 290.2392 15.08833954 54633,6917.899,95.438,540.42,539.107,0.0
52139.0,STARLINK-3730,PAYLOAD,2023-03-05 04:40:28,15.0884083,0.0001513,53.2166,339.4381,80.5828,279.5335,0.00010174,1.332e-05,0.0,0 STARLINK-3730,1 52139U 22029BD  23064.19476976  .00001332  00000-0  10174-3 0  9994,2 52139  53.2166 339.4381 0001513  80.5828 279.5335 15.08840830 54658,6917.878,95.438,540.79,538.696,0.0
52139.0,STARLINK-3730,PAYLOAD,2023-03-05 22:09:43,15.08833417,0.0001633,53.2164,336.1665,77.1072,283.0103,0.00035985,5.443e-05,0.0,0 STARLINK-3730,1 52139U 22029BD  23064.92341744  .00005443  00000-0  35985-3 0  9993,2 52139  53.2164 336.1665 0001633  77.1072 283.0103 15.08833417 54769,6917.901,95.438,540.895,538.636,0.0
52139.0,STARLINK-3730,PAYLOAD,2023-03-06 04:31:15,15.08861569,0.0001129,53.216,334.978,94.8242,265.2879,0.0011146,0.00017506,0.0,0 STARLINK-3730,1 52139U 22029BD  23065.18837107  .00017506  00000-0  11146-2 0  9990,2 52139  53.2160 334.9780 0001129  94.8242 265.2879 15.08861569 54800,6917.814,95.436,540.46,538.898,0.0
52139.0,STARLINK-3730,PAYLOAD,2023-03-06 17:14:21,15.08833702,0.0001647,53.2149,332.6007,86.3387,273.7794,0.00013542,1.867e-05,0.0,0 STARLINK-3730,1 52139U 22029BD  23065.71829886  .00001867  00000-0  13542-3 0  9990,2 52139  53.2149 332.6007 0001647  86.3387 273.7794 15.08833702 54881,6917.9,95.438,540.904,538.625,0.0
52139.0,STARLINK-3730,PAYLOAD,2023-03-07 02:46:39,15.08848137,8.46e-05,53.2148,330.8152,88.4712,271.6377,0.0012081,0.00018995,0.0,0 STARLINK-3730,1 52139U 22029BD  23066.11573820  .00018995  00000-0  12081-2 0  9995,2 52139  53.2148 330.8152 0000846  88.4712 271.6377 15.08848137 54945,6917.856,95.437,540.306,539.135,0.0
52139.0,STARLINK-3730,PAYLOAD,2023-03-07 17:05:08,15.08850431,0.0001104,53.2148,328.1395,75.845,284.2664,0.0016481,0.00026046,0.0,0 STARLINK-3730,1 52139U 22029BD  23066.71190343  .00026046  00000-0  16481-2 0  9990,2 52139  53.2148 328.1395 0001104  75.8450 284.2664 15.08850431 55031,6917.849,95.437,540.477,538.95,0.0
52139.0,STARLINK-3730,PAYLOAD,2023-03-08 16:55:55,15.08848314,0.0002564,53.2125,323.681,61.6546,298.4704,0.0016263,0.00025696,0.0,0 STARLINK-3730,1 52139U 22029BD  23067.70550641  .00025696  00000-0  16263-2 0  9999,2 52139  53.2125 323.6810 0002564  61.6546 298.4704 15.08848314 55183,6917.855,95.437,541.494,537.946,0.0
52139.0,STARLINK-3730,PAYLOAD,2023-03-08 23:17:28,15.08853937,7.53e-05,53.2145,322.4896,69.989,290.1183,0.0024463,0.00038875,0.0,0 STARLINK-3730,1 52139U 22029BD  23067.97046426  .00038875  00000-0  24463-2 0  9993,2 52139  53.2145 322.4896 0000753  69.9890 290.1183 15.08853937 55229,6917.838,95.437,540.224,539.182,0.0
52139.0,STARLINK-3730,PAYLOAD,2023-03-09 21:32:51,15.08864487,0.0001023,53.2148,318.3283,62.9335,297.1762,0.001696,0.00026825,0.0,0 STARLINK-3730,1 52139U 22029BD  23068.89782290  .00026825  00000-0  16960-2 0  9996,2 52139  53.2148 318.3283 0001023  62.9335 297.1762 15.08864487 55361,6917.806,95.436,540.378,538.963,0.0
52139.0,STARLINK-3730,PAYLOAD,2023-03-09 23:08:14,15.08874857,0.0001015,53.2143,318.0297,66.3123,293.7975,0.0020638,0.00032742,0.0,0 STARLINK-3730,1 52139U 22029BD  23068.96406096  .00032742  00000-0  20638-2 0  9993,2 52139  53.2143 318.0297 0001015  66.3123 293.7975 15.08874857 55373,6917.774,95.435,540.341,538.937,0.0
